#aV2011  6 12  0  0   .00000000      96 DD+AD WGS84 FIT  NGA
## 1640       .00000000   900.00000000 55724  .0000000000000
+   32     1  2  3  4  5  6  7  8  9 10 11 12 13 14 15 16 17
+         18 19 20 21 22 23 24 25 26 27 28 29 30 31 32  0  0
+          0  0  0  0  0  0  0  0  0  0  0  0  0  0  0  0  0
+          0  0  0  0  0  0  0  0  0  0  0  0  0  0  0  0  0
+          0  0  0  0  0  0  0  0  0  0  0  0  0  0  0  0  0
++         0  0  0  0  0  0  0  0  0  0  0  0  0  0  0  0  0
++         0  0  0  0  0  0  0  0  0  0  0  0  0  0  0  0  0
++         0  0  0  0  0  0  0  0  0  0  0  0  0  0  0  0  0
++         0  0  0  0  0  0  0  0  0  0  0  0  0  0  0  0  0
++         0  0  0  0  0  0  0  0  0  0  0  0  0  0  0  0  0
%c cc cc ccc ccc cccc cccc cccc cccc ccccc ccccc ccccc ccccc
%c cc cc ccc ccc cccc cccc cccc cccc ccccc ccccc ccccc ccccc
%f  0.0000000  0.000000000  0.00000000000  0.000000000000000
%f  0.0000000  0.000000000  0.00000000000  0.000000000000000
%i    0    0    0    0      0      0      0      0         0
%i    0    0    0    0      0      0      0      0         0
/*      NGA, ST. LOUIS,MO.                                  
/*   EPHEMERIS COMPUTED FROM  3 DAYS OF DATA                
/* CCCCCCCCCCCCCCCCCCCCCCCCCCCCCCCCCCCCCCCCCCCCCCCCCCCCCCCCC
/* CCCCCCCCCCCCCCCCCCCCCCCCCCCCCCCCCCCCCCCCCCCCCCCCCCCCCCCCC
*  2011  6 12  5  0   .00000000                                                 
P  1 -13442.925833 -13300.057879  18308.748351     90.852053                    
V  1    732.904279 -24035.651959 -16557.352909       .015941                    
P  2  -7350.034317 -19412.201582  16893.377385    341.278334                    
V  2  18874.703473   9885.712114  19146.598961       .019470                    
P  3     -1.896155  17918.847306 -19936.669735    727.506566                    
V  3 -21313.303523  12407.969857  11716.324571       .051579                    
P  4   7825.515996 -13527.914159  21255.989066    141.752044                    
V  4  23125.956706  15041.864566   1391.501979       .107742                    
P  5  -1992.918301 -25945.942198  -5044.460897   -173.554871                    
V  5   3414.613324  -6215.692112  30809.885995      -.056408                    
P  6  -5678.928141  18440.146131 -17996.402190    224.029278                    
V  6 -21345.701214   9659.478739  16723.589048      -.833004                    
P  7  21775.393609   2323.899745 -15181.490998     14.060262                    
V  7  14965.997456  12072.348547  23099.551146       .012701                    
P  8  15827.278868  -4708.634794 -20912.803856      8.136005                    
V  8  20436.634320  16682.536521  11159.815550       .000759                    
P  9 -21338.447054 -15675.147645  -2610.830858     85.848814                    
V  9   3320.568291   -322.465554 -32029.178331       .024588                    
P 10   9159.773848 -22489.351810  10089.391518     -3.430716                    
V 10   2019.556579  13489.177868  28016.301672      -.011588                    
P 11  22332.670668  13327.482909  -6533.060720   -158.793833                    
V 11  -8955.568983   1655.075295 -28314.733720      -.032620                    
P 12 -11962.561358 -13941.092552  19267.546854      1.883832                    
V 12   2984.665453 -24162.824743 -15472.573371       .025983                    
P 13  24831.039858  -3827.147411   8570.799230    265.898811                    
V 13  -9612.611109   5696.278163  29820.057320      -.016344                    
P 14 -20191.035759  14890.641998   8653.436590    155.518157                    
V 14 -10717.373615   2359.061084 -29746.719996       .022170                    
P 15 -13986.568870  -9330.909506 -20590.392585   -122.128861                    
V 15  22799.421217 -12856.208644  -9495.064632       .023292                    
P 16    684.281277  25949.869651  -4770.811281   -178.430173                    
V 16  -3101.797406   5849.397739  31535.331710      -.025235                    
P 17  19620.052972 -15602.202646   8572.470877    183.854604                    
V 17  10916.157049  -2006.157063 -29329.360802      -.004954                    
P 18 -15252.799303   8400.100958 -19634.190330    141.767363                    
V 18    431.550359 -25888.869457 -11602.492794       .019345                    
P 19  10312.371215  12049.134245 -21355.742770   -150.456920                    
V 19 -25022.131882  10316.218676  -5912.500665      -.040595                    
P 20  14324.890380  10369.003051  19689.952092     49.848160                    
V 20  -2024.705484  25357.387480 -11733.607335       .002701                    
P 21 -21296.876526   -232.660907 -15814.538558   -150.610846                    
V 21 -15879.822632 -13466.450191  20417.896058      -.025842                    
P 22 -11180.348442  20296.338870 -12709.162256    147.563921                    
V 22  -1758.350765 -16732.566422 -24945.528675      -.006763                    
P 23  19614.952854   4109.142273  17608.692882    299.810669                    
V 23 -19399.076986  10906.051373  18721.181007      -.027549                    
P 24  22187.744775  14761.449582   1997.380228    397.841021                    
V 24    197.102798   3839.175674 -31145.357724       .030213                    
P 25 -15148.401364    427.015804  21789.680843      3.485729                    
V 25   1258.017922 -27680.603701   1441.743312       .018928                    
P 26  -1254.412618 -15313.705339 -22212.149625    -57.907420                    
V 26  24990.514512  -9597.637720   5740.320407      -.114909                    
P 27 -19434.475729 -16858.772646  -6603.246548    274.151478                    
V 27   8845.437015   3067.687372 -30504.171496       .037301                    
P 28  12303.333152 -17209.377754 -15380.954197     44.196385                    
V 28   -179.522942  20644.103962 -22739.847313       .027597                    
P 29 -24137.273893   2577.887731  10804.730711    214.578770                    
V 29  11420.665750  -7812.223986  27619.291662       .028417                    
P 30  -3516.257452  25894.393815   4257.211101     10.335800                    
V 30  -2705.765987  -5983.678557  31164.360085       .048438                    
P 31  -4710.262705  14561.305479  21882.365015     94.264165                    
V 31 -22800.983891 -14989.281974   5319.534852       .057795                    
P 32   9100.288413  18970.220977  16732.263207   -271.617135                    
V 32  -4655.323022  20105.750571 -20194.838877      -.071294                    
EOF
